[ ["SL-12 R/B(2)", 15772, "1 15772U 85042D   26204.87407346  .00000009  00000+0  25409-4 0  9996", "2 15772  71.1077 160.0055 0037375 273.4700 107.3390 14.22012458133753", null], ["SL-14 R/B", 15945, "1 15945U 85069B   26204.58532701  .00000300  00000+0  31007-4 0  9994", "2 15945  82.5251 257.1351 0020336 101.4703 258.8799 14.86539078193027", null], ["SL-16 R/B", 16182, "1 16182U 85097B   26204.51158868  .00000101  00000+0  74718-4 0  9995", "2 16182  71.0008 214.6033 0005995  34.5319 128.7526 14.16616741106463", null], ["SL-14 R/B", 16496, "1 16496U 86006B   26204.25528946  .00000383  00000+0  37745-4 0  9994", "2 16496  82.5286 132.1740 0076179 181.9860 178.1067 14.86972764169358", null], ["COSMOS 1743", 16719, "1 16719U 86034A   26204.31650347  .00058562  00000+0  47820-3 0  9997", "2 16719  82.5265 290.2227 0005418 151.5709 208.5850 15.70344290201459", null], ["SL-14 R/B", 16792, "1 16792U 86046B   26204.58969830  .00000375  00000+0  40194-4 0  9997", "2 16792  82.4840 311.7804 0024183 136.2007 224.1132 14.85695376146587", null], ["SL-14 R/B", 16882, "1 16882U 86055B   26204.43942080  .00000387  00000+0  41683-4 0  9996", "2 16882  82.5211 359.0445 0017517 240.6766 145.4556 14.85744592139527", null], ["AJISAI (EGS)", 16908, "1 16908U 86061A   26204.85338590 -.00000096  00000+0  11633-4 0  9993", "2 16908  50.0106  34.6475 0011076 273.9568 234.7309 12.44516693484951", null], ["SL-14 R/B", 17567, "1 17567U 87024B   26204.57369767  .00000383  00000+0  40664-4 0  9998", "2 17567  82.5305 325.0503 0018586 166.0201 194.1534 14.86236576108311", null], ["COSMOS 1833", 17589, "1 17589U 87027A   26204.49390873 -.00000023  00000+0  13160-4 0  9991", "2 17589  70.9214  40.5571 0024863 355.5056   4.5838 14.13067910 29505", null], ["SL-16 R/B", 17590, "1 17590U 87027B   26204.63750874  .00000019  00000+0  33213-4 0  9995", "2 17590  71.0044 350.0148 0007290 272.9515  87.0774 14.17176628 34609", null], ["SL-14 R/B", 17912, "1 17912U 87038B   26204.84073281  .00000422  00000+0  45970-4 0  9999", "2 17912  82.5022 168.5474 0020815  75.7766 284.5760 14.85466290 99443", null], ["COSMOS 1844", 17973, "1 17973U 87041A   26204.66604672 -.00000145  00000+0 -50298-4 0  9997", "2 17973  70.8999 107.3636 0030758 182.9740 177.1204 14.14580949 22811", null], ["SL-14 R/B", 18153, "1 18153U 87055B   26204.45679823  .00000320  00000+0  33966-4 0  9996", "2 18153  82.4969 221.0357 0019044 285.7702  74.1414 14.85730629 90091", null], ["COSMOS 1867", 18187, "1 18187U 87060A   26204.67044704 -.00000060  00000+0  15287-4 0  9995", "2 18187  65.0110 285.8854 0017357 281.9532  77.9606 14.31519158 39402", null], ["SL-14 R/B", 18749, "1 18749U 88001B   26204.59610476  .00000308  00000+0  32601-4 0  9994", "2 18749  82.5113  67.5167 0018853 144.8614 215.3850 14.85630613 62207", null], ["COSMOS 1933", 18958, "1 18958U 88020A   26204.47040360  .00003085  00000+0  14624-3 0  9992", "2 18958  82.5136 116.5018 0005958  86.9519 273.2397 15.18930155 70834", null], ["SL-3 R/B", 19046, "1 19046U 88032B   26204.88802663  .00004406  00000+0  19951-3 0  9997", "2 19046  97.5280 187.9024 0027101 116.9704 243.4303 15.21082958 72800", null], ["SL-16 R/B", 19120, "1 19120U 88039B   26204.83159315 -.00000105  00000+0 -26962-4 0  9996", "2 19120  71.0150 140.6743 0020213 135.2224 225.0537 14.19632347977705", null], ["COSMOS 1953", 19210, "1 19210U 88050A   26204.83464634  .00007174  00000+0  24238-3 0  9996", "2 19210  82.5070  21.0604 0010722  10.8638 349.2832 15.30425936 58594", null], ["SL-8 R/B", 19257, "1 19257U 88053B   26204.37849207  .00000157  00000+0  59156-4 0  9994", "2 19257  74.0451 222.3433 0020040   5.5165 122.4347 14.38980662996110", null], ["COSMOS 1975", 19573, "1 19573U 88093A   26204.78998830  .00007442  00000+0  25660-3 0  9997", "2 19573  82.5203 340.8701 0012109  55.4036 304.8344 15.29753361 40200", null], ["SL-14 R/B", 19574, "1 19574U 88093B   26204.30456480  .00000285  00000+0  29984-4 0  9998", "2 19574  82.5306 274.7392 0019401 312.2709 113.7369 14.85763595 21157", null], ["SL-16 R/B", 19650, "1 19650U 88102B   26204.52317663  .00000250  00000+0  15021-3 0  9995", "2 19650  70.9972 225.6831 0013797 172.7424 187.3902 14.16168988946122", null], ["INTERCOSMOS 24", 20261, "1 20261U 89080A   26204.46932486  .00000261  00000+0  74665-4 0  9992", "2 20261  82.6060  16.0269 1186808 337.7359  17.6012 12.59694747683893", null], ["SL-14 R/B", 20262, "1 20262U 89080C   26204.64333538  .00000109  00000+0  31348-4 0  9998", "2 20262  82.5922  85.8826 1229030 233.9650 114.1395 12.50579790677148", null], ["DELTA 1 R/B", 20323, "1 20323U 89089B   26204.49863897  .00000254  00000+0  71212-4 0  9999", "2 20323  97.0638  30.2465 0070392  54.2752 306.4967 14.50751509915424", null], ["ARIANE 40 R/B", 20443, "1 20443U 90005H   26204.17842606  .00000166  00000+0  66137-4 0  9994", "2 20443  98.2937 260.6714 0010783 151.2148 208.9638 14.39943472912307", null], ["DELTA 2 R/B(1)", 20453, "1 20453U 90008B   26204.58212277  .00140072  00000+0  79982-3 0  9990", "2 20453  35.6002 351.0604 0054865  96.0974 264.6023 15.75295239947432", null], ["COSMOS 2058", 20465, "1 20465U 90010A   26204.59760891  .00002742  00000+0  15711-3 0  9998", "2 20465  82.4676 273.4446 0008734 216.5372 143.5264 15.12194443962770", null], ["SL-14 R/B", 20466, "1 20466U 90010B   26204.31711825  .00000314  00000+0  35083-4 0  9990", "2 20466  82.5041 140.0164 0018915 208.9474 151.0693 14.83666735948593", null]]