OBJECT_NAME,OBJECT_ID,EPOCH,MEAN_MOTION,ECCENTRICITY,INCLINATION,RA_OF_ASC_NODE,ARG_OF_PERICENTER,MEAN_ANOMALY,EPHEMERIS_TYPE,CLASSIFICATION_TYPE,NORAD_CAT_ID,ELEMENT_SET_NO,REV_AT_EPOCH,BSTAR,MEAN_MOTION_DOT,MEAN_MOTION_DDOT
SL-12 R/B(2),1985-042D,2026-07-23T20:58:39.946944,14.22012458,.0037375,71.1077,160.0055,273.4700,107.3390,0,U,15772,999,13375,.25409E-4,.9E-7,0
SL-14 R/B,1985-069B,2026-07-23T14:02:52.253664,14.86539078,.0020336,82.5251,257.1351,101.4703,258.8799,0,U,15945,999,19302,.31007E-4,.3E-5,0
SL-16 R/B,1985-097B,2026-07-23T12:16:41.261952,14.16616741,.0005995,71.0008,214.6033,34.5319,128.7526,0,U,16182,999,10646,.74718E-4,.101E-5,0
SL-14 R/B,1986-006B,2026-07-23T06:07:37.009344,14.86972764,.0076179,82.5286,132.1740,181.9860,178.1067,0,U,16496,999,16935,.37745E-4,.383E-5,0
COSMOS 1743,1986-034A,2026-07-23T07:35:45.899808,15.70344290,.0005418,82.5265,290.2227,151.5709,208.5850,0,U,16719,999,20145,.4782E-3,.58562E-3,0
SL-14 R/B,1986-046B,2026-07-23T14:09:09.933120,14.85695376,.0024183,82.4840,311.7804,136.2007,224.1132,0,U,16792,999,14658,.40194E-4,.375E-5,0
SL-14 R/B,1986-055B,2026-07-23T10:32:45.957120,14.85744592,.0017517,82.5211,359.0445,240.6766,145.4556,0,U,16882,999,13952,.41683E-4,.387E-5,0
AJISAI (EGS),1986-061A,2026-07-23T20:28:52.541760,12.44516693,.0011076,50.0106,34.6475,273.9568,234.7309,0,U,16908,999,48495,.11633E-4,-.96E-6,0
SL-14 R/B,1987-024B,2026-07-23T13:46:07.478688,14.86236576,.0018586,82.5305,325.0503,166.0201,194.1534,0,U,17567,999,10831,.40664E-4,.383E-5,0
COSMOS 1833,1987-027A,2026-07-23T11:51:13.714272,14.13067910,.0024863,70.9214,40.5571,355.5056,4.5838,0,U,17589,999,2950,.1316E-4,-.23E-6,0
SL-16 R/B,1987-027B,2026-07-23T15:18:00.755136,14.17176628,.000729,71.0044,350.0148,272.9515,87.0774,0,U,17590,999,3460,.33213E-4,.19E-6,0
SL-14 R/B,1987-038B,2026-07-23T20:10:39.314784,14.85466290,.0020815,82.5022,168.5474,75.7766,284.5760,0,U,17912,999,9944,.4597E-4,.422E-5,0
COSMOS 1844,1987-041A,2026-07-23T15:59:06.436608,14.14580949,.0030758,70.8999,107.3636,182.9740,177.1204,0,U,17973,999,2281,-.50298E-4,-.145E-5,0
SL-14 R/B,1987-055B,2026-07-23T10:57:47.367072,14.85730629,.0019044,82.4969,221.0357,285.7702,74.1414,0,U,18153,999,9009,.33966E-4,.32E-5,0
COSMOS 1867,1987-060A,2026-07-23T16:05:26.624256,14.31519158,.0017357,65.0110,285.8854,281.9532,77.9606,0,U,18187,999,3940,.15287E-4,-.6E-6,0
SL-14 R/B,1988-001B,2026-07-23T14:18:23.451264,14.85630613,.0018853,82.5113,67.5167,144.8614,215.3850,0,U,18749,999,6220,.32601E-4,.308E-5,0
COSMOS 1933,1988-020A,2026-07-23T11:17:22.871040,15.18930155,.0005958,82.5136,116.5018,86.9519,273.2397,0,U,18958,999,7083,.14624E-3,.3085E-4,0
SL-3 R/B,1988-032B,2026-07-23T21:18:45.500832,15.21082958,.0027101,97.5280,187.9024,116.9704,243.4303,0,U,19046,999,7280,.19951E-3,.4406E-4,0
SL-16 R/B,1988-039B,2026-07-23T19:57:29.648160,14.19632347,.0020213,71.0150,140.6743,135.2224,225.0537,0,U,19120,999,97770,-.26962E-4,-.105E-5,0
COSMOS 1953,1988-050A,2026-07-23T20:01:53.443776,15.30425936,.0010722,82.5070,21.0604,10.8638,349.2832,0,U,19210,999,5859,.24238E-3,.7174E-4,0
SL-8 R/B,1988-053B,2026-07-23T09:05:01.714848,14.38980662,.002004,74.0451,222.3433,5.5165,122.4347,0,U,19257,999,99611,.59156E-4,.157E-5,0
COSMOS 1975,1988-093A,2026-07-23T18:57:34.989120,15.29753361,.0012109,82.5203,340.8701,55.4036,304.8344,0,U,19573,999,4020,.2566E-3,.7442E-4,0
SL-14 R/B,1988-093B,2026-07-23T07:18:34.398720,14.85763595,.0019401,82.5306,274.7392,312.2709,113.7369,0,U,19574,999,2115,.29984E-4,.285E-5,0
SL-16 R/B,1988-102B,2026-07-23T12:33:22.460832,14.16168988,.0013797,70.9972,225.6831,172.7424,187.3902,0,U,19650,999,94612,.15021E-3,.25E-5,0
INTERCOSMOS 24,1989-080A,2026-07-23T11:15:49.667904,12.59694747,.1186808,82.6060,16.0269,337.7359,17.6012,0,U,20261,999,68389,.74665E-4,.261E-5,0
SL-14 R/B,1989-080C,2026-07-23T15:26:24.176832,12.50579790,.122903,82.5922,85.8826,233.9650,114.1395,0,U,20262,999,67714,.31348E-4,.109E-5,0
DELTA 1 R/B,1989-089B,2026-07-23T11:58:02.407008,14.50751509,.0070392,97.0638,30.2465,54.2752,306.4967,0,U,20323,999,91542,.71212E-4,.254E-5,0
ARIANE 40 R/B,1990-005H,2026-07-23T04:16:56.011584,14.39943472,.0010783,98.2937,260.6714,151.2148,208.9638,0,U,20443,999,91230,.66137E-4,.166E-5,0
DELTA 2 R/B(1),1990-008B,2026-07-23T13:58:15.407328,15.75295239,.0054865,35.6002,351.0604,96.0974,264.6023,0,U,20453,999,94743,.79982E-3,.140072E-2,0
COSMOS 2058,1990-010A,2026-07-23T14:20:33.409824,15.12194443,.0008734,82.4676,273.4446,216.5372,143.5264,0,U,20465,999,96277,.15711E-3,.2742E-4,0
SL-14 R/B,1990-010B,2026-07-23T07:36:39.016800,14.83666735,.0018915,82.5041,140.0164,208.9474,151.0693,0,U,20466,999,94859,.35083E-4,.314E-5,0
